$$SOE
2461295.500000000, A.D. 2026-Sep-12 00:00:00.0000, -8.372805220840448E+07, -3.964651712765877E+08, 3.303748743956891E+07,
2461302.500000000, A.D. 2026-Sep-19 00:00:00.0000, -7.291928178838570E+07, -3.984400206072641E+08, 3.329654231719562E+07,
2461309.500000000, A.D. 2026-Sep-26 00:00:00.0000, -6.205777175165403E+07, -4.001267888552639E+08, 3.353152071812400E+07,
2461316.500000000, A.D. 2026-Oct-03 00:00:00.0000, -5.115133459392298E+07, -4.015239871359021E+08, 3.374223005285212E+07,
2461323.500000000, A.D. 2026-Oct-10 00:00:00.0000, -4.020783057675209E+07, -4.026303414414516E+08, 3.392849556924345E+07,
2461330.500000000, A.D. 2026-Oct-17 00:00:00.0000, -2.923516160669078E+07, -4.034447943820790E+08, 3.409016056428105E+07,
2461337.500000000, A.D. 2026-Oct-24 00:00:00.0000, -1.824126504398398E+07, -4.039665068331445E+08, 3.422708657252808E+07,
2461344.500000000, A.D. 2026-Oct-31 00:00:00.0000, -7.234107348056753E+06, -4.041948595523428E+08, 3.433915351665796E+07,
2461351.500000000, A.D. 2026-Nov-07 00:00:00.0000, 3.778322772366477E+06, -4.041294546896604E+08, 3.442625979504330E+07,
2461358.500000000, A.D. 2026-Nov-14 00:00:00.0000, 1.478802189791540E+07, -4.037701162996038E+08, 3.448832236051139E+07,
2461365.500000000, A.D. 2026-Nov-21 00:00:00.0000, 2.578697830648290E+07, -4.031168891699089E+08, 3.452527701198697E+07,
2461372.500000000, A.D. 2026-Nov-28 00:00:00.0000, 3.676717624505135E+07, -4.021700389699277E+08, 3.453707874427301E+07,
2461379.500000000, A.D. 2026-Dec-05 00:00:00.0000, 4.772060167858820E+07, -4.009300543716836E+08, 3.452370177008368E+07,
2461386.500000000, A.D. 2026-Dec-12 00:00:00.0000, 5.863924967391627E+07, -3.993976480315748E+08, 3.448513945367956E+07,
2461393.500000000, A.D. 2026-Dec-19 00:00:00.0000, 6.951513152327316E+07, -3.975737564251888E+08, 3.442140432999215E+07,
2461400.500000000, A.D. 2026-Dec-26 00:00:00.0000, 8.034028145686467E+07, -3.954595394017273E+08, 3.433252815146190E+07,
2461407.500000000, A.D. 2027-Jan-02 00:00:00.0000, 9.110676321157579E+07, -3.930563796475625E+08, 3.421856192169313E+07,
2461414.500000000, A.D. 2027-Jan-09 00:00:00.0000, 1.018066765635403E+08, -3.903658820374311E+08, 3.407957590670541E+07,
2461421.500000000, A.D. 2027-Jan-16 00:00:00.0000, 1.124321638504016E+08, -3.873898728630223E+08, 3.391565962093185E+07,
2461428.500000000, A.D. 2027-Jan-23 00:00:00.0000, 1.229754165200863E+08, -3.841303989776822E+08, 3.372692178018850E+07,
2461435.500000000, A.D. 2027-Jan-30 00:00:00.0000, 1.334286818848680E+08, -3.805897269055444E+08, 3.351349020048095E+07,
2461442.500000000, A.D. 2027-Feb-06 00:00:00.0000, 1.437842704959967E+08, -3.767703415769901E+08, 3.327551163174699E+07,
2461449.500000000, A.D. 2027-Feb-13 00:00:00.0000, 1.540345636682834E+08, -3.726749434730290E+08, 3.301315166863829E+07,
2461456.500000000, A.D. 2027-Feb-20 00:00:00.0000, 1.641720187799837E+08, -3.683064449706495E+08, 3.272659489027521E+07,
2461463.500000000, A.D. 2027-Feb-27 00:00:00.0000, 1.741891737341834E+08, -3.636679691023949E+08, 3.241604483770040E+07,
2461470.500000000, A.D. 2027-Mar-06 00:00:00.0000, 1.840786535921628E+08, -3.587628488088098E+08, 3.208172370910989E+07,
2461477.500000000, A.D. 2027-Mar-13 00:00:00.0000, 1.938331777712948E+08, -3.535946246379334E+08, 3.172387208741863E+07,
2461484.500000000, A.D. 2027-Mar-20 00:00:00.0000, 2.034455666703153E+08, -3.481670417305639E+08, 3.134274873590143E+07,
2461491.500000000, A.D. 2027-Mar-27 00:00:00.0000, 2.129087479159416E+08, -3.424840466444293E+08, 3.093863039887314E+07,
2461498.500000000, A.D. 2027-Apr-03 00:00:00.0000, 2.222157624250809E+08, -3.365497840694970E+08, 3.051181158522806E+07,
2461505.500000000, A.D. 2027-Apr-10 00:00:00.0000, 2.313597703340004E+08, -3.303685934154943E+08, 3.006260433119100E+07,
2461512.500000000, A.D. 2027-Apr-17 00:00:00.0000, 2.403340568056821E+08, -3.239450052884046E+08, 2.959133793863034E+07,
2461519.500000000, A.D. 2027-Apr-24 00:00:00.0000, 2.491320377847229E+08, -3.172837379183996E+08, 2.909835867571110E+07,
2461526.500000000, A.D. 2027-May-01 00:00:00.0000, 2.577472659931174E+08, -3.103896935117649E+08, 2.858402941421300E+07,
2461533.500000000, A.D. 2027-May-08 00:00:00.0000, 2.661734374714568E+08, -3.032679537825500E+08, 2.804872923718545E+07,
2461540.500000000, A.D. 2027-May-15 00:00:00.0000, 2.744043971658016E+08, -2.959237737190390E+08, 2.749285323363540E+07,
2461547.500000000, A.D. 2027-May-22 00:00:00.0000, 2.824341419904847E+08, -2.883625761856297E+08, 2.691681241301972E+07,
2461554.500000000, A.D. 2027-May-29 00:00:00.0000, 2.902568247154085E+08, -2.805899488350568E+08, 2.632103331230985E+07,
2461561.500000000, A.D. 2027-Jun-05 00:00:00.0000, 2.978667595564737E+08, -2.726116402057824E+08, 2.570595747107244E+07,
2461568.500000000, A.D. 2027-Jun-12 00:00:00.0000, 3.052584274558357E+08, -2.644335545799872E+08, 2.507204099471708E+07,
2461575.500000000, A.D. 2027-Jun-19 00:00:00.0000, 3.124264807150890E+08, -2.560617465439176E+08, 2.441975416046481E+07,
2461582.500000000, A.D. 2027-Jun-26 00:00:00.0000, 3.193657472554256E+08, -2.475024155183018E+08, 2.374958101964799E+07,
2461589.500000000, A.D. 2027-Jul-03 00:00:00.0000, 3.260712346322393E+08, -2.387619002572022E+08, 2.306201898560773E+07,
2461596.500000000, A.D. 2027-Jul-10 00:00:00.0000, 3.325381338368156E+08, -2.298466733137857E+08, 2.235757840532257E+07,
2461603.500000000, A.D. 2027-Jul-17 00:00:00.0000, 3.387618229171594E+08, -2.207633355194528E+08, 2.163678210900985E+07,
2461610.500000000, A.D. 2027-Jul-24 00:00:00.0000, 3.447378705697414E+08, -2.115186105462270E+08, 2.090016491877655E+07,
2461617.500000000, A.D. 2027-Jul-31 00:00:00.0000, 3.504620401100008E+08, -2.021193393231686E+08, 2.014827309846967E+07,
2461624.500000000, A.D. 2027-Aug-07 00:00:00.0000, 3.559302936199695E+08, -1.925724731627440E+08, 1.938166385845716E+07,
2461631.500000000, A.D. 2027-Aug-14 00:00:00.0000, 3.611387939711778E+08, -1.828850658611191E+08, 1.860090510696710E+07,
2461638.500000000, A.D. 2027-Aug-21 00:00:00.0000, 3.660839053366463E+08, -1.730642681464167E+08, 1.780657511672969E+07,
2461645.500000000, A.D. 2027-Aug-28 00:00:00.0000, 3.707621956176572E+08, -1.631173232782955E+08, 1.699926189054647E+07,
2461652.500000000, A.D. 2027-Sep-04 00:00:00.0000, 3.751704396014115E+08, -1.530515613028831E+08, 1.617956253897566E+07,
2461659.500000000, A.D. 2027-Sep-11 00:00:00.0000, 3.793056214529055E+08, -1.428743926314797E+08, 1.534808274459425E+07,
2461666.500000000, A.D. 2027-Sep-18 00:00:00.0000, 3.831649366734419E+08, -1.325933016000822E+08, 1.450543624799385E+07,
2461673.500000000, A.D. 2027-Sep-25 00:00:00.0000, 3.867457937549427E+08, -1.222158400940693E+08, 1.365224432873642E+07,
2461680.500000000, A.D. 2027-Oct-02 00:00:00.0000, 3.900458156065909E+08, -1.117496212176134E+08, 1.278913527728537E+07,
2461687.500000000, A.D. 2027-Oct-09 00:00:00.0000, 3.930628407784713E+08, -1.012023130202315E+08, 1.191674385615956E+07,
2461694.500000000, A.D. 2027-Oct-16 00:00:00.0000, 3.957949245474088E+08, -9.058163234408996E+07, 1.103571074060658E+07,
2461701.500000000, A.D. 2027-Oct-23 00:00:00.0000, 3.982403401254082E+08, -7.989533880649152E+07, 1.014668191480076E+07,
2461708.500000000, A.D. 2027-Oct-30 00:00:00.0000, 4.003975803649406E+08, -6.915122831400816E+07, 9.250308039335929E+06,
2461715.500000000, A.D. 2027-Nov-06 00:00:00.0000, 4.022653588004348E+08, -5.835712498570178E+07, 8.347243989766434E+06,
2461722.500000000, A.D. 2027-Nov-13 00:00:00.0000, 4.038426080460523E+08, -4.752087357012154E+07, 7.438148579639567E+06,
2461729.500000000, A.D. 2027-Nov-20 00:00:00.0000, 4.051284784530733E+08, -3.665033455108853E+07, 6.523684023546866E+06,
2461736.500000000, A.D. 2027-Nov-27 00:00:00.0000, 4.061223386443624E+08, -2.575337898378255E+07, 5.604515234398404E+06,
2461743.500000000, A.D. 2027-Dec-04 00:00:00.0000, 4.068237759053693E+08, -1.483788215264382E+07, 4.681309215927059E+06,
2461750.500000000, A.D. 2027-Dec-11 00:00:00.0000, 4.072325958855408E+08, -3.911717021554916E+06, 3.754734522927383E+06,
2461757.500000000, A.D. 2027-Dec-18 00:00:00.0000, 4.073488218893420E+08, 7.017252177460148E+06, 2.825460736972727E+06,
2461764.500000000, A.D. 2027-Dec-25 00:00:00.0000, 4.071726939122483E+08, 1.794117620733771E+07, 1.894157944026612E+06,
2461771.500000000, A.D. 2028-Jan-01 00:00:00.0000, 4.067046674651548E+08, 2.885222694804969E+07, 9.614962117462195E+05,
$$EOE